{
  "type": "FeatureCollection",
  "features": [
    {
      "type": "Feature",
      "properties": {
        "norad_id": 29268,
        "name": "ARIRANG-2 (KOMPSAT-2)",
        "group": "resource",
        "lat": -14.93961228269753,
        "lon": -171.74120110625378,
        "alt_km": 681.0266904766249,
        "timestamp": "2025-12-24T05:51:19.262187+00:00",
        "meta_object_name": "ARIRANG-2 (KOMPSAT-2)",
        "meta_object_id": "2006-031A",
        "meta_epoch": "2025-12-24T00:03:45.426240",
        "meta_mean_motion": 14.64504345,
        "meta_eccentricity": 0.0013127,
        "meta_inclination": 97.8254,
        "meta_ra_of_asc_node": 185.9264,
        "meta_arg_of_pericenter": 270.5086,
        "meta_mean_anomaly": 242.625,
        "meta_ephemeris_type": 0,
        "meta_classification_type": "U",
        "meta_norad_cat_id": 29268,
        "meta_element_set_no": 999,
        "meta_rev_at_epoch": 3583,
        "meta_bstar": 0.00014689958,
        "meta_mean_motion_dot": 7.34e-06,
        "meta_mean_motion_ddot": 0,
        "tle_line1": "1 29268U 06031A   25358.00260910  .00000734  00000+0  14690-3 0  9994",
        "tle_line2": "2 29268  97.8254 185.9264 0013127 270.5086 242.6250 14.64504345 35837"
      },
      "geometry": {
        "type": "Point",
        "coordinates": [
          -171.74120110625378,
          -14.93961228269753
        ]
      }
    },
    {
      "type": "Feature",
      "properties": {
        "norad_id": 29709,
        "name": "LAPAN-TUBSAT",
        "group": "resource",
        "lat": 73.66536832021812,
        "lon": -40.54111164743103,
        "alt_km": 596.8332240826348,
        "timestamp": "2025-12-24T05:51:19.262198+00:00",
        "meta_object_name": "LAPAN-TUBSAT",
        "meta_object_id": "2007-001A",
        "meta_epoch": "2025-12-23T23:03:02.733984",
        "meta_mean_motion": 14.856874,
        "meta_eccentricity": 0.00132943,
        "meta_inclination": 98.1261,
        "meta_ra_of_asc_node": 348.3476,
        "meta_arg_of_pericenter": 40.9181,
        "meta_mean_anomaly": 319.3029,
        "meta_ephemeris_type": 0,
        "meta_classification_type": "U",
        "meta_norad_cat_id": 29709,
        "meta_element_set_no": 999,
        "meta_rev_at_epoch": 2513,
        "meta_bstar": 7.3886716e-05,
        "meta_mean_motion_dot": 5.84e-06,
        "meta_mean_motion_ddot": 0,
        "tle_line1": "1 29709U 07001A   25357.96044831  .00000584  00000+0  73887-4 0  9995",
        "tle_line2": "2 29709  98.1261 348.3476 0013294  40.9181 319.3029 14.85687400 25134"
      },
      "geometry": {
        "type": "Point",
        "coordinates": [
          -40.54111164743103,
          73.66536832021812
        ]
      }
    },
    {
      "type": "Feature",
      "properties": {
        "norad_id": 31113,
        "name": "HAIYANG-1B",
        "group": "resource",
        "lat": -37.872554582668016,
        "lon": 155.5024753562794,
        "alt_km": 803.0730040629587,
        "timestamp": "2025-12-24T05:51:19.262208+00:00",
        "meta_object_name": "HAIYANG-1B",
        "meta_object_id": "2007-010A",
        "meta_epoch": "2025-12-23T22:07:32.109888",
        "meta_mean_motion": 14.3096859,
        "meta_eccentricity": 0.00136744,
        "meta_inclination": 98.3327,
        "meta_ra_of_asc_node": 341.7386,
        "meta_arg_of_pericenter": 6.0187,
        "meta_mean_anomaly": 354.1158,
        "meta_ephemeris_type": 0,
        "meta_classification_type": "U",
        "meta_norad_cat_id": 31113,
        "meta_element_set_no": 999,
        "meta_rev_at_epoch": 97556,
        "meta_bstar": 5.6728947e-05,
        "meta_mean_motion_dot": 1.08e-06,
        "meta_mean_motion_ddot": 0,
        "tle_line1": "1 31113U 07010A   25357.92189942  .00000108  00000+0  56729-4 0  9994",
        "tle_line2": "2 31113  98.3327 341.7386 0013674   6.0187 354.1158 14.30968590975562"
      },
      "geometry": {
        "type": "Point",
        "coordinates": [
          155.5024753562794,
          -37.872554582668016
        ]
      }
    },
    {
      "type": "Feature",
      "properties": {
        "norad_id": 31598,
        "name": "COSMO-SKYMED 1",
        "group": "resource",
        "lat": 82.09793209693918,
        "lon": 90.44298011222851,
        "alt_km": 571.3403960514906,
        "timestamp": "2025-12-24T05:51:19.262219+00:00",
        "meta_object_name": "COSMO-SKYMED 1",
        "meta_object_id": "2007-023A",
        "meta_epoch": "2025-12-23T23:01:51.186144",
        "meta_mean_motion": 14.95847218,
        "meta_eccentricity": 0.00013716,
        "meta_inclination": 97.884,
        "meta_ra_of_asc_node": 183.433,
        "meta_arg_of_pericenter": 78.6345,
        "meta_mean_anomaly": 281.5029,
        "meta_ephemeris_type": 0,
        "meta_classification_type": "U",
        "meta_norad_cat_id": 31598,
        "meta_element_set_no": 999,
        "meta_rev_at_epoch": 358,
        "meta_bstar": 0.00030003156,
        "meta_mean_motion_dot": 3.293e-05,
        "meta_mean_motion_ddot": 0,
        "tle_line1": "1 31598U 07023A   25357.95962021  .00003293  00000+0  30003-3 0  9999",
        "tle_line2": "2 31598  97.8840 183.4330 0001371  78.6345 281.5029 14.95847218  3583"
      },
      "geometry": {
        "type": "Point",
        "coordinates": [
          90.44298011222851,
          82.09793209693918
        ]
      }
    },
    {
      "type": "Feature",
      "properties": {
        "norad_id": 31698,
        "name": "TERRASAR-X",
        "group": "resource",
        "lat": -8.843509431017383,
        "lon": 4.621701821318631,
        "alt_km": 512.5213948162409,
        "timestamp": "2025-12-24T05:51:19.262230+00:00",
        "meta_object_name": "TERRASAR-X",
        "meta_object_id": "2007-026A",
        "meta_epoch": "2025-12-23T12:30:19.023264",
        "meta_mean_motion": 15.19149386,
        "meta_eccentricity": 0.00017705,
        "meta_inclination": 97.4442,
        "meta_ra_of_asc_node": 2.7437,
        "meta_arg_of_pericenter": 81.4954,
        "meta_mean_anomaly": 278.6481,
        "meta_ephemeris_type": 0,
        "meta_classification_type": "U",
        "meta_norad_cat_id": 31698,
        "meta_element_set_no": 999,
        "meta_rev_at_epoch": 2655,
        "meta_bstar": 4.2968524e-05,
        "meta_mean_motion_dot": 8.35e-06,
        "meta_mean_motion_ddot": 0,
        "tle_line1": "1 31698U 07026A   25357.52105351  .00000835  00000+0  42969-4 0  9995",
        "tle_line2": "2 31698  97.4442   2.7437 0001770  81.4954 278.6481 15.19149386 26559"
      },
      "geometry": {
        "type": "Point",
        "coordinates": [
          4.621701821318631,
          -8.843509431017383
        ]
      }
    },
    {
      "type": "Feature",
      "properties": {
        "norad_id": 32060,
        "name": "WORLDVIEW-1 (WV-1)",
        "group": "resource",
        "lat": -30.045405818626563,
        "lon": -68.74366502528903,
        "alt_km": 501.93446658823086,
        "timestamp": "2025-12-24T05:51:19.262241+00:00",
        "meta_object_name": "WORLDVIEW-1 (WV-1)",
        "meta_object_id": "2007-041A",
        "meta_epoch": "2025-12-23T21:03:22.377312",
        "meta_mean_motion": 15.2393267,
        "meta_eccentricity": 0.00032884,
        "meta_inclination": 97.3828,
        "meta_ra_of_asc_node": 115.1965,
        "meta_arg_of_pericenter": 359.6506,
        "meta_mean_anomaly": 0.4728,
        "meta_ephemeris_type": 0,
        "meta_classification_type": "U",
        "meta_norad_cat_id": 32060,
        "meta_element_set_no": 999,
        "meta_rev_at_epoch": 1617,
        "meta_bstar": 0.00035081259,
        "meta_mean_motion_dot": 8.413e-05,
        "meta_mean_motion_ddot": 0,
        "tle_line1": "1 32060U 07041A   25357.87734233  .00008413  00000+0  35081-3 0  9997",
        "tle_line2": "2 32060  97.3828 115.1965 0003288 359.6506   0.4728 15.23932670 16177"
      },
      "geometry": {
        "type": "Point",
        "coordinates": [
          -68.74366502528903,
          -30.045405818626563
        ]
      }
    },
    {
      "type": "Feature",
      "properties": {
        "norad_id": 32289,
        "name": "YAOGAN-3",
        "group": "resource",
        "lat": 53.98978074470208,
        "lon": 13.842865597914301,
        "alt_km": 592.3784730822072,
        "timestamp": "2025-12-24T05:51:19.262251+00:00",
        "meta_object_name": "YAOGAN-3",
        "meta_object_id": "2007-055A",
        "meta_epoch": "2025-12-23T23:09:47.668320",
        "meta_mean_motion": 14.8990918,
        "meta_eccentricity": 0.0001234,
        "meta_inclination": 97.8351,
        "meta_ra_of_asc_node": 24.4877,
        "meta_arg_of_pericenter": 83.8659,
        "meta_mean_anomaly": 276.2699,
        "meta_ephemeris_type": 0,
        "meta_classification_type": "U",
        "meta_norad_cat_id": 32289,
        "meta_element_set_no": 999,
        "meta_rev_at_epoch": 97976,
        "meta_bstar": 0.00026849945,
        "meta_mean_motion_dot": 2.528e-05,
        "meta_mean_motion_ddot": 0,
        "tle_line1": "1 32289U 07055A   25357.96513505  .00002528  00000+0  26850-3 0  9997",
        "tle_line2": "2 32289  97.8351  24.4877 0001234  83.8659 276.2699 14.89909180979768"
      },
      "geometry": {
        "type": "Point",
        "coordinates": [
          13.842865597914301,
          53.98978074470208
        ]
      }
    }
  ]
}